[{"OBJECT_NAME":"ONEWEB-0342","OBJECT_ID":"2021-083Y","EPOCH":"2025-07-27T19:24:39.269376","MEAN_MOTION":13.2077143,"ECCENTRICITY":0.0001952,"INCLINATION":87.9278,"RA_OF_ASC_NODE":339.0625,"ARG_OF_PERICENTER":95.1053,"MEAN_ANOMALY":265.0303,"EPHEMERIS_TYPE":0,"CLASSIFICATION_TYPE":"U","NORAD_CAT_ID":49208,"ELEMENT_SET_NO":999,"REV_AT_EPOCH":19396,"BSTAR":0.00012048,"MEAN_MOTION_DOT":6.2e-7,"MEAN_MOTION_DDOT":0},{"OBJECT_NAME":"ONEWEB-0343","OBJECT_ID":"2021-083Z","EPOCH":"2025-07-27T21:59:29.414688","MEAN_MOTION":13.18687803,"ECCENTRICITY":0.0001649,"INCLINATION":87.9124,"RA_OF_ASC_NODE":39.8641,"ARG_OF_PERICENTER":69.2274,"MEAN_ANOMALY":290.9034,"EPHEMERIS_TYPE":0,"CLASSIFICATION_TYPE":"U","NORAD_CAT_ID":49209,"ELEMENT_SET_NO":999,"REV_AT_EPOCH":18730,"BSTAR":4.8405e-7,"MEAN_MOTION_DOT":1.3e-7,"MEAN_MOTION_DDOT":0},{"OBJECT_NAME":"ONEWEB-0344","OBJECT_ID":"2021-083AA","EPOCH":"2025-07-27T21:47:31.489440","MEAN_MOTION":13.1347,"ECCENTRICITY":0.0001383,"INCLINATION":87.8963,"RA_OF_ASC_NODE":24.7013,"ARG_OF_PERICENTER":85.7785,"MEAN_ANOMALY":274.3502,"EPHEMERIS_TYPE":0,"CLASSIFICATION_TYPE":"U","NORAD_CAT_ID":49210,"ELEMENT_SET_NO":999,"REV_AT_EPOCH":18832,"BSTAR":-0.00065511,"MEAN_MOTION_DOT":-2.26e-6,"MEAN_MOTION_DDOT":0},{"OBJECT_NAME":"ONEWEB-0345","OBJECT_ID":"2021-083AB","EPOCH":"2025-07-27T21:35:20.090112","MEAN_MOTION":13.13468656,"ECCENTRICITY":0.0001334,"INCLINATION":87.8962,"RA_OF_ASC_NODE":24.6548,"ARG_OF_PERICENTER":84.8996,"MEAN_ANOMALY":275.2285,"EPHEMERIS_TYPE":0,"CLASSIFICATION_TYPE":"U","NORAD_CAT_ID":49211,"ELEMENT_SET_NO":999,"REV_AT_EPOCH":18833,"BSTAR":-0.00078154,"MEAN_MOTION_DOT":-2.73e-6,"MEAN_MOTION_DDOT":0},{"OBJECT_NAME":"ONEWEB-0346","OBJECT_ID":"2021-083AC","EPOCH":"2025-07-27T22:12:32.524416","MEAN_MOTION":13.18686237,"ECCENTRICITY":0.0001794,"INCLINATION":87.9124,"RA_OF_ASC_NODE":39.8844,"ARG_OF_PERICENTER":109.0589,"MEAN_ANOMALY":251.0738,"EPHEMERIS_TYPE":0,"CLASSIFICATION_TYPE":"U","NORAD_CAT_ID":49212,"ELEMENT_SET_NO":999,"REV_AT_EPOCH":18724,"BSTAR":1.4185e-5,"MEAN_MOTION_DOT":1.9e-7,"MEAN_MOTION_DDOT":0},{"OBJECT_NAME":"ONEWEB-0348","OBJECT_ID":"2021-083AD","EPOCH":"2025-07-27T21:00:06.050592","MEAN_MOTION":13.20772792,"ECCENTRICITY":0.0001407,"INCLINATION":87.9285,"RA_OF_ASC_NODE":339.0599,"ARG_OF_PERICENTER":112.4486,"MEAN_ANOMALY":247.6796,"EPHEMERIS_TYPE":0,"CLASSIFICATION_TYPE":"U","NORAD_CAT_ID":49213,"ELEMENT_SET_NO":999,"REV_AT_EPOCH":19400,"BSTAR":-0.0001842,"MEAN_MOTION_DOT":-6.2e-7,"MEAN_MOTION_DDOT":0},{"OBJECT_NAME":"ONEWEB-0350","OBJECT_ID":"2021-083AE","EPOCH":"2025-07-27T21:48:43.979904","MEAN_MOTION":13.13471776,"ECCENTRICITY":0.0001461,"INCLINATION":87.8963,"RA_OF_ASC_NODE":24.6444,"ARG_OF_PERICENTER":88.5466,"MEAN_ANOMALY":271.5831,"EPHEMERIS_TYPE":0,"CLASSIFICATION_TYPE":"U","NORAD_CAT_ID":49214,"ELEMENT_SET_NO":999,"REV_AT_EPOCH":18836,"BSTAR":-0.00095661,"MEAN_MOTION_DOT":-3.37e-6,"MEAN_MOTION_DDOT":0},{"OBJECT_NAME":"ONEWEB-0351","OBJECT_ID":"2021-083AF","EPOCH":"2025-07-27T20:50:49.314048","MEAN_MOTION":13.2077233,"ECCENTRICITY":0.0002178,"INCLINATION":87.9292,"RA_OF_ASC_NODE":339.0437,"ARG_OF_PERICENTER":75.9206,"MEAN_ANOMALY":284.2169,"EPHEMERIS_TYPE":0,"CLASSIFICATION_TYPE":"U","NORAD_CAT_ID":49215,"ELEMENT_SET_NO":999,"REV_AT_EPOCH":19396,"BSTAR":-3.7553e-5,"MEAN_MOTION_DOT":-2.0e-8,"MEAN_MOTION_DDOT":0},{"OBJECT_NAME":"ONEWEB-0352","OBJECT_ID":"2021-083AG","EPOCH":"2025-07-27T21:20:42.698976","MEAN_MOTION":13.13469243,"ECCENTRICITY":0.0001971,"INCLINATION":87.8964,"RA_OF_ASC_NODE":24.6896,"ARG_OF_PERICENTER":78.1057,"MEAN_ANOMALY":282.0293,"EPHEMERIS_TYPE":0,"CLASSIFICATION_TYPE":"U","NORAD_CAT_ID":49216,"ELEMENT_SET_NO":999,"REV_AT_EPOCH":18845,"BSTAR":-0.00050078,"MEAN_MOTION_DOT":-1.7e-6,"MEAN_MOTION_DDOT":0},{"OBJECT_NAME":"ONEWEB-0354","OBJECT_ID":"2021-083AH","EPOCH":"2025-07-27T21:27:21.994848","MEAN_MOTION":13.20771022,"ECCENTRICITY":0.0001574,"INCLINATION":87.9293,"RA_OF_ASC_NODE":339.0376,"ARG_OF_PERICENTER":99.6635,"MEAN_ANOMALY":260.4676,"EPHEMERIS_TYPE":0,"CLASSIFICATION_TYPE":"U","NORAD_CAT_ID":49217,"ELEMENT_SET_NO":999,"REV_AT_EPOCH":19400,"BSTAR":-0.00023531,"MEAN_MOTION_DOT":-8.3e-7,"MEAN_MOTION_DDOT":0},{"OBJECT_NAME":"ONEWEB-0355","OBJECT_ID":"2021-083AJ","EPOCH":"2025-07-27T22:02:21.109632","MEAN_MOTION":13.13471346,"ECCENTRICITY":0.0001691,"INCLINATION":87.8966,"RA_OF_ASC_NODE":24.6827,"ARG_OF_PERICENTER":84.0396,"MEAN_ANOMALY":276.0926,"EPHEMERIS_TYPE":0,"CLASSIFICATION_TYPE":"U","NORAD_CAT_ID":49218,"ELEMENT_SET_NO":999,"REV_AT_EPOCH":18833,"BSTAR":-1.6969e-5,"MEAN_MOTION_DOT":7.0e-8,"MEAN_MOTION_DDOT":0},{"OBJECT_NAME":"ONEWEB-0357","OBJECT_ID":"2021-083AK","EPOCH":"2025-07-27T21:22:49.566144","MEAN_MOTION":13.20770865,"ECCENTRICITY":0.0001827,"INCLINATION":87.9284,"RA_OF_ASC_NODE":339.0425,"ARG_OF_PERICENTER":92.2026,"MEAN_ANOMALY":267.9317,"EPHEMERIS_TYPE":0,"CLASSIFICATION_TYPE":"U","NORAD_CAT_ID":49219,"ELEMENT_SET_NO":999,"REV_AT_EPOCH":19530,"BSTAR":-0.00010671,"MEAN_MOTION_DOT":-3.0e-7,"MEAN_MOTION_DDOT":0},{"OBJECT_NAME":"ONEWEB-0332","OBJECT_ID":"2021-090A","EPOCH":"2025-07-27T21:08:16.851840","MEAN_MOTION":13.1450364,"ECCENTRICITY":0.0002042,"INCLINATION":87.9065,"RA_OF_ASC_NODE":354.2504,"ARG_OF_PERICENTER":92.2487,"MEAN_ANOMALY":267.8877,"EPHEMERIS_TYPE":0,"CLASSIFICATION_TYPE":"U","NORAD_CAT_ID":49279,"ELEMENT_SET_NO":999,"REV_AT_EPOCH":18497,"BSTAR":-0.00023444,"MEAN_MOTION_DOT":-7.4e-7,"MEAN_MOTION_DDOT":0},{"OBJECT_NAME":"ONEWEB-0347","OBJECT_ID":"2021-090B","EPOCH":"2025-07-28T04:25:32.650752","MEAN_MOTION":13.20770228,"ECCENTRICITY":0.0002258,"INCLINATION":87.9291,"RA_OF_ASC_NODE":338.9942,"ARG_OF_PERICENTER":99.0102,"MEAN_ANOMALY":261.1287,"EPHEMERIS_TYPE":0,"CLASSIFICATION_TYPE":"U","NORAD_CAT_ID":49280,"ELEMENT_SET_NO":999,"REV_AT_EPOCH":18827,"BSTAR":-0.000324,"MEAN_MOTION_DOT":-1.19e-6,"MEAN_MOTION_DDOT":0},{"OBJECT_NAME":"ONEWEB-0349","OBJECT_ID":"2021-090C","EPOCH":"2025-07-27T21:54:38.897280","MEAN_MOTION":13.20770038,"ECCENTRICITY":0.0001812,"INCLINATION":87.928,"RA_OF_ASC_NODE":339.0528,"ARG_OF_PERICENTER":95.1178,"MEAN_ANOMALY":265.0162,"EPHEMERIS_TYPE":0,"CLASSIFICATION_TYPE":"U","NORAD_CAT_ID":49281,"ELEMENT_SET_NO":999,"REV_AT_EPOCH":18702,"BSTAR":7.3516e-5,"MEAN_MOTION_DOT":4.3e-7,"MEAN_MOTION_DDOT":0},{"OBJECT_NAME":"ONEWEB-0353","OBJECT_ID":"2021-090D","EPOCH":"2025-07-27T20:56:51.674784","MEAN_MOTION":13.1450378,"ECCENTRICITY":0.0002071,"INCLINATION":87.9065,"RA_OF_ASC_NODE":354.2388,"ARG_OF_PERICENTER":94.5877,"MEAN_ANOMALY":265.5489,"EPHEMERIS_TYPE":0,"CLASSIFICATION_TYPE":"U","NORAD_CAT_ID":49282,"ELEMENT_SET_NO":999,"REV_AT_EPOCH":18497,"BSTAR":8.2135e-5,"MEAN_MOTION_DOT":4.3e-7,"MEAN_MOTION_DDOT":0},{"OBJECT_NAME":"ONEWEB-0356","OBJECT_ID":"2021-090E","EPOCH":"2025-07-27T21:52:22.099296","MEAN_MOTION":13.20771414,"ECCENTRICITY":0.0002275,"INCLINATION":87.9284,"RA_OF_ASC_NODE":339.0439,"ARG_OF_PERICENTER":121.2157,"MEAN_ANOMALY":238.92,"EPHEMERIS_TYPE":0,"CLASSIFICATION_TYPE":"U","NORAD_CAT_ID":49283,"ELEMENT_SET_NO":999,"REV_AT_EPOCH":18702,"BSTAR":-6.1242e-5,"MEAN_MOTION_DOT":-1.2e-7,"MEAN_MOTION_DDOT":0}]
