ONEWEB-0342             
1 49208U 21083Y   25208.80878784  .00000062  00000+0  12048-3 0  9999
2 49208  87.9278 339.0625 0001952  95.1053 265.0303 13.20771430193969
ONEWEB-0343             
1 49209U 21083Z   25208.91631267  .00000013  00000+0  48405-6 0  9990
2 49209  87.9124  39.8641 0001649  69.2274 290.9034 13.18687803187309
ONEWEB-0344             
1 49210U 21083AA  25208.90800335 -.00000226  00000+0 -65511-3 0  9997
2 49210  87.8963  24.7013 0001383  85.7785 274.3502 13.13470000188325
ONEWEB-0345             
1 49211U 21083AB  25208.89953808 -.00000273  00000+0 -78154-3 0  9999
2 49211  87.8962  24.6548 0001334  84.8996 275.2285 13.13468656188330
ONEWEB-0346             
1 49212U 21083AC  25208.92537644  .00000019  00000+0  14185-4 0  9991
2 49212  87.9124  39.8844 0001794 109.0589 251.0738 13.18686237187243
ONEWEB-0348             
1 49213U 21083AD  25208.87507003 -.00000062  00000+0 -18420-3 0  9997
2 49213  87.9285 339.0599 0001407 112.4486 247.6796 13.20772792194001
ONEWEB-0350             
1 49214U 21083AE  25208.90884236 -.00000337  00000+0 -95661-3 0  9995
2 49214  87.8963  24.6444 0001461  88.5466 271.5831 13.13471776188369
ONEWEB-0351             
1 49215U 21083AF  25208.86862632 -.00000002  00000+0 -37553-4 0  9993
2 49215  87.9292 339.0437 0002178  75.9206 284.2169 13.20772330193964
ONEWEB-0352             
1 49216U 21083AG  25208.88938309 -.00000170  00000+0 -50078-3 0  9993
2 49216  87.8964  24.6896 0001971  78.1057 282.0293 13.13469243188455
ONEWEB-0354             
1 49217U 21083AH  25208.89400457 -.00000083  00000+0 -23531-3 0  9990
2 49217  87.9293 339.0376 0001574  99.6635 260.4676 13.20771022194009
ONEWEB-0355             
1 49218U 21083AJ  25208.91829988  .00000007  00000+0 -16969-4 0  9991
2 49218  87.8966  24.6827 0001691  84.0396 276.0926 13.13471346188334
ONEWEB-0357             
1 49219U 21083AK  25208.89085146 -.00000030  00000+0 -10671-3 0  9999
2 49219  87.9284 339.0425 0001827  92.2026 267.9317 13.20770865195302
ONEWEB-0332             
1 49279U 21090A   25208.88075060 -.00000074  00000+0 -23444-3 0  9996
2 49279  87.9065 354.2504 0002042  92.2487 267.8877 13.14503640184972
ONEWEB-0347             
1 49280U 21090B   25209.18440568 -.00000119  00000+0 -32400-3 0  9993
2 49280  87.9291 338.9942 0002258  99.0102 261.1287 13.20770228188272
ONEWEB-0349             
1 49281U 21090C   25208.91295020  .00000043  00000+0  73516-4 0  9993
2 49281  87.9280 339.0528 0001812  95.1178 265.0162 13.20770038187024
ONEWEB-0353             
1 49282U 21090D   25208.87282031  .00000043  00000+0  82135-4 0  9994
2 49282  87.9065 354.2388 0002071  94.5877 265.5489 13.14503780184975
ONEWEB-0356             
1 49283U 21090E   25208.91136689 -.00000012  00000+0 -61242-4 0  9991
2 49283  87.9284 339.0439 0002275 121.2157 238.9200 13.20771414187024
